[{"OBJECT_NAME":"LACUNASAT-4D","OBJECT_ID":"2025-276DW","EPOCH":"2026-03-09T17:30:33.252192","MEAN_MOTION":14.98548204,"ECCENTRICITY":0.00108499,"INCLINATION":97.5312,"RA_OF_ASC_NODE":142.8344,"ARG_OF_PERICENTER":115.0636,"MEAN_ANOMALY":245.1714,"EPHEMERIS_TYPE":0,"CLASSIFICATION_TYPE":"U","NORAD_CAT_ID":66781,"ELEMENT_SET_NO":999,"REV_AT_EPOCH":772,"BSTAR":0.00086123106,"MEAN_MOTION_DOT":0.00010278,"MEAN_MOTION_DDOT":0},{"OBJECT_NAME":"STARLINK-35715","OBJECT_ID":"2025-280W","EPOCH":"2026-03-09T21:33:23.567616","MEAN_MOTION":14.98331958,"ECCENTRICITY":0.00024315,"INCLINATION":70.0025,"RA_OF_ASC_NODE":334.0679,"ARG_OF_PERICENTER":264.7252,"MEAN_ANOMALY":95.3629,"EPHEMERIS_TYPE":0,"CLASSIFICATION_TYPE":"U","NORAD_CAT_ID":66841,"ELEMENT_SET_NO":999,"REV_AT_EPOCH":1610,"BSTAR":0.00033987855,"MEAN_MOTION_DOT":3.965e-5,"MEAN_MOTION_DDOT":0}]
